     2.100          NAVIGATION                              RINEX VERSION / TYPE
fic2rin                                 04/20/2009 02:43:00 PGM / RUN BY / DATE
                                                            END OF HEADER
32 09  4 20  0  0  0.0  .272432342172D-03 -.500222085975D-11  .000000000000D+00
     .200000000000D+02 -.127812500000D+02  .448090093322D-08 -.205271082534D+01
    -.299885869026D-06  .133643770823D-01  .633671879768D-05  .515358840179D+04
     .864000000000D+05 -.558793544769D-08  .136420518906D+01  .344589352608D-06
     .964276549075D+00  .257250000000D+03 -.117576569307D+01 -.800676208521D-08
    -.173221501085D-09  .100000000000D+01  .152800000000D+04  .000000000000D+00
     .240000000000D+01  .000000000000D+00 -.325962901115D-08  .200000000000D+02
     .792060000000D+05  .400000000000D+01
